NORAD_CAT_ID,OBJECT_NAME,OBJECT_TYPE,EPOCH,MEAN_MOTION,ECCENTRICITY,INCLINATION,RA_OF_ASC_NODE,ARG_OF_PERICENTER,MEAN_ANOMALY,BSTAR,MEAN_MOTION_DOT,MEAN_MOTION_DDOT,TLE_LINE0,TLE_LINE1,TLE_LINE2,SEMIMAJOR_AXIS,PERIOD,APOGEE,PERIGEE,DECAYED
55656.0,STARLINK-5326,PAYLOAD,2024-02-01 03:18:42,14.98343539,0.0002532,70.001,319.5661,263.5979,96.4891,-0.00036134,-4.403e-05,0.0,0 STARLINK-5326,1 55656U 23021AE  24032.13799356 -.00004403  00000-0 -36134-3 0  9992,2 55656  70.0010 319.5661 0002532 263.5979  96.4891 14.98343539 53522,6950.151,96.106,573.776,570.256,0.0
55656.0,STARLINK-5326,PAYLOAD,2024-02-01 04:54:50,14.9836504,0.0002654,70.001,319.3975,261.222,98.8639,-0.0007521,-9.063e-05,0.0,0 STARLINK-5326,1 55656U 23021AE  24032.20474748 -.00009063  00000-0 -75210-3 0  9990,2 55656  70.0010 319.3975 0002654 261.2220  98.8639 14.98365040 53535,6950.085,96.105,573.794,570.105,0.0
55656.0,STARLINK-5326,PAYLOAD,2024-02-02 03:20:43,14.98330986,0.0002709,70.0007,317.0397,262.5698,97.5154,5.8071e-05,6e-06,0.0,0 STARLINK-5326,1 55656U 23021AE  24033.13939407  .00000600  00000-0  58071-4 0  9994,2 55656  70.0007 317.0397 0002709 262.5698  97.5154 14.98330986 53672,6950.19,96.107,573.938,570.172,0.0
55656.0,STARLINK-5326,PAYLOAD,2024-02-02 04:56:51,14.98331842,0.0002685,70.0008,316.8717,262.1609,97.9245,6.8155e-05,7.2e-06,0.0,0 STARLINK-5326,1 55656U 23021AE  24033.20615329  .00000720  00000-0  68155-4 0  9993,2 55656  70.0008 316.8717 0002685 262.1609  97.9245 14.98331842 53988,6950.187,96.107,573.918,570.186,0.0
55656.0,STARLINK-5326,PAYLOAD,2024-02-02 22:34:20,14.98327142,0.0002773,70.0005,315.0215,257.6765,102.4083,6.94e-05,7.35e-06,0.0,0 STARLINK-5326,1 55656U 23021AE  24033.94051635  .00000735  00000-0  69400-4 0  9998,2 55656  70.0005 315.0215 0002773 257.6765 102.4083 14.98327142 54092,6950.202,96.107,573.994,570.139,0.0
55656.0,STARLINK-5326,PAYLOAD,2024-02-03 03:22:44,14.9832732,0.0002772,70.0004,314.5167,255.2681,104.8171,6.7429e-05,7.12e-06,0.0,0 STARLINK-5326,1 55656U 23021AE  24034.14079656  .00000712  00000-0  67429-4 0  9998,2 55656  70.0004 314.5167 0002772 255.2681 104.8171 14.98327320 53823,6950.201,96.107,573.993,570.14,0.0
55656.0,STARLINK-5326,PAYLOAD,2024-02-03 04:58:52,14.98327302,0.0002744,70.0004,314.3468,262.3997,97.685,7.2903e-05,7.77e-06,0.0,0 STARLINK-5326,1 55656U 23021AE  24034.20755724  .00000777  00000-0  72903-4 0  9996,2 55656  70.0004 314.3468 0002744 262.3997  97.6850 14.98327302 54131,6950.201,96.107,573.973,570.159,0.0
55656.0,STARLINK-5326,PAYLOAD,2024-02-03 22:36:21,14.9833372,0.000274,70.0004,312.4949,265.1808,94.9039,3.5959e-05,3.36e-06,0.0,0 STARLINK-5326,1 55656U 23021AE  24034.94191381  .00000336  00000-0  35959-4 0  9991,2 55656  70.0004 312.4949 0002740 265.1808  94.9039 14.98333720 54244,6950.181,96.107,573.951,570.142,0.0
55656.0,STARLINK-5326,PAYLOAD,2024-02-04 03:24:45,14.98337294,0.0002662,70.0005,311.9901,263.103,96.9826,7.0427e-05,7.48e-06,0.0,0 STARLINK-5326,1 55656U 23021AE  24035.14218997  .00000748  00000-0  70427-4 0  9993,2 55656  70.0005 311.9901 0002662 263.1030  96.9826 14.98337294 53970,6950.17,96.107,573.885,570.185,0.0
55656.0,STARLINK-5326,PAYLOAD,2024-02-04 19:26:06,14.98325438,0.0002501,70.0006,310.3068,259.4647,100.623,1.1004e-05,3.8e-07,0.0,0 STARLINK-5326,1 55656U 23021AE  24035.80979864  .00000038  00000-0  11004-4 0  9991,2 55656  70.0006 310.3068 0002501 259.4647 100.6230 14.98325438 54073,6950.207,96.107,573.81,570.334,0.0
55656.0,STARLINK-5326,PAYLOAD,2024-02-04 22:38:22,14.98324557,0.0002397,70.0011,309.9701,251.0998,108.9901,6.5678e-06,-1.5e-07,0.0,0 STARLINK-5326,1 55656U 23021AE  24035.94331906 -.00000015  00000-0  65678-5 0  9998,2 55656  70.0011 309.9701 0002397 251.0998 108.9901 14.98324557 54399,6950.21,96.107,573.741,570.409,0.0
55656.0,STARLINK-5326,PAYLOAD,2024-02-05 03:26:46,14.98325522,0.0002526,70.0007,309.4652,258.5649,101.5227,5.7754e-06,-2.4e-07,0.0,0 STARLINK-5326,1 55656U 23021AE  24036.14359927 -.00000024  00000-0  57754-5 0  9990,2 55656  70.0007 309.4652 0002526 258.5649 101.5227 14.98325522 54420,6950.207,96.107,573.827,570.316,0.0
55656.0,STARLINK-5326,PAYLOAD,2024-02-05 19:28:07,14.98335676,0.0002545,70.001,307.7826,249.8903,110.1982,1.6597e-05,1.05e-06,0.0,0 STARLINK-5326,1 55656U 23021AE  24036.81119215  .00000105  00000-0  16597-4 0  9996,2 55656  70.0010 307.7826 0002545 249.8903 110.1982 14.98335676 54228,6950.175,96.107,573.809,570.272,0.0
55656.0,STARLINK-5326,PAYLOAD,2024-02-05 22:40:23,14.98335383,0.0002558,70.0009,307.4458,249.8444,110.244,1.3204e-05,6.5e-07,0.0,0 STARLINK-5326,1 55656U 23021AE  24036.94471196  .00000065  00000-0  13204-4 0  9996,2 55656  70.0009 307.4458 0002558 249.8444 110.2440 14.98335383 54548,6950.176,96.107,573.819,570.263,0.0
55656.0,STARLINK-5326,PAYLOAD,2024-02-06 03:28:47,14.9833707,0.0002732,69.9999,306.9388,262.5029,97.582,6.412e-05,6.72e-06,0.0,0 STARLINK-5326,1 55656U 23021AE  24037.14498942  .00000672  00000-0  64120-4 0  9994,2 55656  69.9999 306.9388 0002732 262.5029  97.5820 14.98337070 54571,6950.171,96.107,573.935,570.137,0.0
55656.0,STARLINK-5326,PAYLOAD,2024-02-06 19:30:08,14.98329899,0.000275,70.0001,305.2565,263.4007,96.6839,6.6233e-05,6.97e-06,0.0,0 STARLINK-5326,1 55656U 23021AE  24037.81259280  .00000697  00000-0  66233-4 0  9992,2 55656  70.0001 305.2565 0002750 263.4007  96.6839 14.98329899 54371,6950.193,96.107,573.97,570.147,0.0
55656.0,STARLINK-5326,PAYLOAD,2024-02-06 22:42:24,14.98330365,0.000275,70.0002,304.9199,263.356,96.7286,6.9753e-05,7.39e-06,0.0,0 STARLINK-5326,1 55656U 23021AE  24037.94611256  .00000739  00000-0  69753-4 0  9998,2 55656  70.0002 304.9199 0002750 263.3560  96.7286 14.98330365 54696,6950.192,96.107,573.968,570.145,0.0
55656.0,STARLINK-5326,PAYLOAD,2024-02-07 11:31:28,14.98329418,0.0002774,69.9999,303.5728,276.3465,83.7378,-1.0275e-05,-2.16e-06,0.0,0 STARLINK-5326,1 55656U 23021AE  24038.48019573 -.00000216  00000-0 -10275-4 0  9999,2 55656  69.9999 303.5728 0002774 276.3465  83.7378 14.98329418 54779,6950.195,96.107,573.988,570.132,0.0
55656.0,STARLINK-5326,PAYLOAD,2024-02-07 19:32:09,14.98327711,0.0002581,70.0002,302.7311,266.2386,93.8478,-5.1472e-05,-7.07e-06,0.0,0 STARLINK-5326,1 55656U 23021AE  24038.81399769 -.00000707  00000-0 -51472-4 0  9993,2 55656  70.0002 302.7311 0002581 266.2386  93.8478 14.98327711 54522,6950.2,96.107,573.859,570.271,0.0
55656.0,STARLINK-5326,PAYLOAD,2024-02-07 21:08:17,14.98326883,0.0002695,69.9999,302.5626,267.5001,92.5849,-5.9773e-05,-8.06e-06,0.0,0 STARLINK-5326,1 55656U 23021AE  24038.88075897 -.00000806  00000-0 -59773-4 0  9995,2 55656  69.9999 302.5626 0002695 267.5001  92.5849 14.98326883 54836,6950.203,96.107,573.941,570.194,0.0
55656.0,STARLINK-5326,PAYLOAD,2024-02-08 00:20:33,14.98329399,0.0002769,70.0,302.2259,265.2355,94.8488,-3.4638e-05,-5.06e-06,0.0,0 STARLINK-5326,1 55656U 23021AE  24039.01427626 -.00000506  00000-0 -34638-4 0  9992,2 55656  70.0000 302.2259 0002769 265.2355  94.8488 14.98329399 54851,6950.195,96.107,573.984,570.135,0.0
55656.0,STARLINK-5326,PAYLOAD,2024-02-08 19:34:10,14.98331307,0.0002799,69.9995,300.206,269.2318,90.852,1.8495e-05,1.28e-06,0.0,0 STARLINK-5326,1 55656U 23021AE  24039.81539429  .00000128  00000-0  18495-4 0  9996,2 55656  69.9995 300.2060 0002799 269.2318  90.8520 14.98331307 54670,6950.189,96.107,573.999,570.108,0.0
55656.0,STARLINK-5326,PAYLOAD,2024-02-08 22:46:26,14.98330006,0.0002805,69.9998,299.8694,268.3523,91.7315,3.4877e-05,3.23e-06,0.0,0 STARLINK-5326,1 55656U 23021AE  24039.94891456  .00000323  00000-0  34877-4 0  9990,2 55656  69.9998 299.8694 0002805 268.3523  91.7315 14.98330006 54997,6950.193,96.107,574.007,570.108,0.0
55656.0,STARLINK-5326,PAYLOAD,2024-02-09 03:34:50,14.98335086,0.000282,69.9996,299.3644,269.5663,90.5173,6.2648e-05,6.55e-06,0.0,0 STARLINK-5326,1 55656U 23021AE  24040.14919044  .00000655  00000-0  62648-4 0  9993,2 55656  69.9996 299.3644 0002820 269.5663  90.5173 14.98335086 55027,6950.177,96.107,574.002,570.082,0.0
55656.0,STARLINK-5326,PAYLOAD,2024-02-09 19:36:11,14.9832636,0.0002765,69.9997,297.6811,269.5635,90.5207,5.8698e-05,6.07e-06,0.0,0 STARLINK-5326,1 55656U 23021AE  24040.81679682  .00000607  00000-0  58698-4 0  9995,2 55656  69.9997 297.6811 0002765 269.5635  90.5207 14.98326360 54822,6950.204,96.107,573.991,570.147,0.0
55656.0,STARLINK-5326,PAYLOAD,2024-02-10 03:36:51,14.98330869,0.0002734,69.9998,296.8401,267.4606,92.624,9.53e-05,1.044e-05,0.0,0 STARLINK-5326,1 55656U 23021AE  24041.15059325  .00001044  00000-0  95300-4 0  9996,2 55656  69.9998 296.8401 0002734 267.4606  92.6240 14.98330869 55178,6950.19,96.107,573.955,570.155,0.0
55656.0,STARLINK-5326,PAYLOAD,2024-02-10 19:38:11,14.98330713,0.0002554,70.0,295.156,256.152,103.9355,6.4502e-05,6.77e-06,0.0,0 STARLINK-5326,1 55656U 23021AE  24041.81819366  .00000677  00000-0  64502-4 0  9999,2 55656  70.0000 295.1560 0002554 256.1520 103.9355 14.98330713 54971,6950.191,96.107,573.831,570.281,0.0
55656.0,STARLINK-5326,PAYLOAD,2024-02-10 22:50:28,14.98331135,0.0002567,70.0002,294.8197,257.9892,102.0979,5.7902e-05,5.98e-06,0.0,0 STARLINK-5326,1 55656U 23021AE  24041.95171358  .00000598  00000-0  57902-4 0  9994,2 55656  70.0002 294.8197 0002567 257.9892 102.0979 14.98331135 55297,6950.189,96.107,573.838,570.27,0.0
55656.0,STARLINK-5326,PAYLOAD,2024-02-11 03:38:52,14.98332003,0.0002587,70.0001,294.3148,258.4696,101.6172,2.8156e-05,2.43e-06,0.0,0 STARLINK-5326,1 55656U 23021AE  24042.15199362  .00000243  00000-0  28156-4 0  9998,2 55656  70.0001 294.3148 0002587 258.4696 101.6172 14.98332003 55326,6950.187,96.107,573.85,570.254,0.0
55656.0,STARLINK-5326,PAYLOAD,2024-02-11 21:16:20,14.98332721,0.00027,69.9998,292.4626,262.9111,97.1741,4.2302e-05,4.12e-06,0.0,0 STARLINK-5326,1 55656U 23021AE  24042.88635152  .00000412  00000-0  42302-4 0  9997,2 55656  69.9998 292.4626 0002700 262.9111  97.1741 14.98332721 55134,6950.184,96.107,573.926,570.173,0.0
